{"type": "FeatureCollection", "features": [ {"type": "Feature", "properties": {"norad_id": 34875, "name": "COSMOS 2251 DEB", "group": "cosmos-2251-debris", "lat": -62.07294044400324, "lon": -6.207676731135925, "alt_km": 724.8819321139053, "timestamp": "2025-12-21T20:41:08.351029+00:00", "meta": {"OBJECT_NAME": "COSMOS 2251 DEB", "OBJECT_ID": "1993-036ACN", "EPOCH": "2025-12-19T11:28:39.014112", "MEAN_MOTION": 14.48947014, "ECCENTRICITY": 0.0016196, "INCLINATION": 74.0433, "RA_OF_ASC_NODE": 145.5897, "ARG_OF_PERICENTER": 268.763, "MEAN_ANOMALY": 149.3216, "EPHEMERIS_TYPE": 0, "CLASSIFICATION_TYPE": "U", "NORAD_CAT_ID": 34875, "ELEMENT_SET_NO": 999, "REV_AT_EPOCH": 87853, "BSTAR": 0.00033791, "MEAN_MOTION_DOT": 1.255e-05, "MEAN_MOTION_DDOT": 0}, "tle": {"line1": "1 34875U 93036ACN 25353.47822933  .00001255  00000+0  33791-3 0  9992", "line2": "2 34875  74.0433 145.5897 0016196 268.7630 149.3216 14.48947014878533"}}, "geometry": {"type": "Point", "coordinates": [-6.207676731135925, -62.07294044400324]}}, {"type": "Feature", "properties": {"norad_id": 34878, "name": "COSMOS 2251 DEB", "group": "cosmos-2251-debris", "lat": -0.11505100079895901, "lon": -147.11559322379736, "alt_km": 1410.3156757561883, "timestamp": "2025-12-21T20:41:08.351038+00:00", "meta": {"OBJECT_NAME": "COSMOS 2251 DEB", "OBJECT_ID": "1993-036ACR", "EPOCH": "2025-12-21T11:10:18.155424", "MEAN_MOTION": 13.44201875, "ECCENTRICITY": 0.04356247, "INCLINATION": 73.9648, "RA_OF_ASC_NODE": 33.48, "ARG_OF_PERICENTER": 15.2878, "MEAN_ANOMALY": 45.8324, "EPHEMERIS_TYPE": 0, "CLASSIFICATION_TYPE": "U", "NORAD_CAT_ID": 34878, "ELEMENT_SET_NO": 999, "REV_AT_EPOCH": 81390, "BSTAR": 0.00060111691, "MEAN_MOTION_DOT": 5.97e-06, "MEAN_MOTION_DDOT": 0}, "tle": {"line1": "1 34878U 93036ACR 25355.46548791  .00000597  00000+0  60112-3 0  9998", "line2": "2 34878  73.9648  33.4800 0435624  15.2878  45.8324 13.44201875813904"}}, "geometry": {"type": "Point", "coordinates": [-147.11559322379736, -0.11505100079895901]}}, {"type": "Feature", "properties": {"norad_id": 34882, "name": "COSMOS 2251 DEB", "group": "cosmos-2251-debris", "lat": -60.33762449485588, "lon": 58.30406588187793, "alt_km": 692.5234923465341, "timestamp": "2025-12-21T20:41:08.351047+00:00", "meta": {"OBJECT_NAME": "COSMOS 2251 DEB", "OBJECT_ID": "1993-036ACV", "EPOCH": "2025-12-20T00:51:13.406976", "MEAN_MOTION": 14.61609371, "ECCENTRICITY": 0.00831704, "INCLINATION": 74.0454, "RA_OF_ASC_NODE": 211.6418, "ARG_OF_PERICENTER": 336.8506, "MEAN_ANOMALY": 22.892, "EPHEMERIS_TYPE": 0, "CLASSIFICATION_TYPE": "U", "NORAD_CAT_ID": 34882, "ELEMENT_SET_NO": 999, "REV_AT_EPOCH": 88631, "BSTAR": 9.3819034e-05, "MEAN_MOTION_DOT": 4.56e-06, "MEAN_MOTION_DDOT": 0}, "tle": {"line1": "1 34882U 93036ACV 25354.03557184  .00000456  00000+0  93819-4 0  9996", "line2": "2 34882  74.0454 211.6418 0083170 336.8506  22.8920 14.61609371886311"}}, "geometry": {"type": "Point", "coordinates": [58.30406588187793, -60.33762449485588]}}, {"type": "Feature", "properties": {"norad_id": 34883, "name": "COSMOS 2251 DEB", "group": "cosmos-2251-debris", "lat": -31.848832817169786, "lon": 35.58658419256848, "alt_km": 733.99975453557, "timestamp": "2025-12-21T20:41:08.351056+00:00", "meta": {"OBJECT_NAME": "COSMOS 2251 DEB", "OBJECT_ID": "1993-036ACW", "EPOCH": "2025-12-18T13:27:07.209504", "MEAN_MOTION": 14.51672805, "ECCENTRICITY": 0.00951028, "INCLINATION": 74.2022, "RA_OF_ASC_NODE": 51.868, "ARG_OF_PERICENTER": 236.3156, "MEAN_ANOMALY": 122.8912, "EPHEMERIS_TYPE": 0, "CLASSIFICATION_TYPE": "U", "NORAD_CAT_ID": 34883, "ELEMENT_SET_NO": 999, "REV_AT_EPOCH": 86524, "BSTAR": 0.0028915699, "MEAN_MOTION_DOT": 0.00012297, "MEAN_MOTION_DDOT": 0}, "tle": {"line1": "1 34883U 93036ACW 25352.56050011  .00012297  00000+0  28916-2 0  9990", "line2": "2 34883  74.2022  51.8680 0095102 236.3156 122.8912 14.51672805865245"}}, "geometry": {"type": "Point", "coordinates": [35.58658419256848, -31.848832817169786]}}, {"type": "Feature", "properties": {"norad_id": 34884, "name": "COSMOS 2251 DEB", "group": "cosmos-2251-debris", "lat": 73.79669251013517, "lon": 118.9808676902559, "alt_km": 587.8169907474921, "timestamp": "2025-12-21T20:41:08.351065+00:00", "meta": {"OBJECT_NAME": "COSMOS 2251 DEB", "OBJECT_ID": "1993-036ACX", "EPOCH": "2025-12-21T14:24:44.757792", "MEAN_MOTION": 14.90421779, "ECCENTRICITY": 0.00027879, "INCLINATION": 74.0169, "RA_OF_ASC_NODE": 38.9847, "ARG_OF_PERICENTER": 42.2579, "MEAN_ANOMALY": 83.2158, "EPHEMERIS_TYPE": 0, "CLASSIFICATION_TYPE": "U", "NORAD_CAT_ID": 34884, "ELEMENT_SET_NO": 999, "REV_AT_EPOCH": 87937, "BSTAR": 0.001784542, "MEAN_MOTION_DOT": 0.00017403, "MEAN_MOTION_DDOT": 0}, "tle": {"line1": "1 34884U 93036ACX 25355.60051803  .00017403  00000+0  17845-2 0  9992", "line2": "2 34884  74.0169  38.9847 0002787  42.2579  83.2158 14.90421779879373"}}, "geometry": {"type": "Point", "coordinates": [118.9808676902559, 73.79669251013517]}}, {"type": "Feature", "properties": {"norad_id": 34885, "name": "COSMOS 2251 DEB", "group": "cosmos-2251-debris", "lat": 36.22104696576024, "lon": -26.262486938777098, "alt_km": 721.2731335138178, "timestamp": "2025-12-21T20:41:08.351074+00:00", "meta": {"OBJECT_NAME": "COSMOS 2251 DEB", "OBJECT_ID": "1993-036ACY", "EPOCH": "2025-12-21T13:41:46.940352", "MEAN_MOTION": 14.51544875, "ECCENTRICITY": 0.0015122, "INCLINATION": 74.0299, "RA_OF_ASC_NODE": 166.3935, "ARG_OF_PERICENTER": 251.9519, "MEAN_ANOMALY": 169.0307, "EPHEMERIS_TYPE": 0, "CLASSIFICATION_TYPE": "U", "NORAD_CAT_ID": 34885, "ELEMENT_SET_NO": 999, "REV_AT_EPOCH": 87607, "BSTAR": 0.00055046816, "MEAN_MOTION_DOT": 2.178e-05, "MEAN_MOTION_DDOT": 0}, "tle": {"line1": "1 34885U 93036ACY 25355.57068218  .00002178  00000+0  55047-3 0  9997", "line2": "2 34885  74.0299 166.3935 0015122 251.9519 169.0307 14.51544875876075"}}, "geometry": {"type": "Point", "coordinates": [-26.262486938777098, 36.22104696576024]}}, {"type": "Feature", "properties": {"norad_id": 34886, "name": "COSMOS 2251 DEB", "group": "cosmos-2251-debris", "lat": -41.20116740149815, "lon": -4.2010828794033275, "alt_km": 463.8488874617833, "timestamp": "2025-12-21T20:41:08.351083+00:00", "meta": {"OBJECT_NAME": "COSMOS 2251 DEB", "OBJECT_ID": "1993-036ACZ", "EPOCH": "2025-12-19T05:20:10.106016", "MEAN_MOTION": 15.39455892, "ECCENTRICITY": 0.0031395, "INCLINATION": 73.9504, "RA_OF_ASC_NODE": 166.9286, "ARG_OF_PERICENTER": 349.772, "MEAN_ANOMALY": 10.2844, "EPHEMERIS_TYPE": 0, "CLASSIFICATION_TYPE": "U", "NORAD_CAT_ID": 34886, "ELEMENT_SET_NO": 999, "REV_AT_EPOCH": 63098, "BSTAR": 0.0012728, "MEAN_MOTION_DOT": 0.00051055, "MEAN_MOTION_DDOT": 0}, "tle": {"line1": "1 34886U 93036ACZ 25353.22233919  .00051055  00000+0  12728-2 0  9996", "line2": "2 34886  73.9504 166.9286 0031395 349.7720  10.2844 15.39455892630986"}}, "geometry": {"type": "Point", "coordinates": [-4.2010828794033275, -41.20116740149815]}}, {"type": "Feature", "properties": {"norad_id": 34907, "name": "COSMOS 2251 DEB", "group": "cosmos-2251-debris", "lat": 50.40294650540667, "lon": 48.743988415049834, "alt_km": 410.39514816308474, "timestamp": "2025-12-21T20:41:08.351092+00:00", "meta": {"OBJECT_NAME": "COSMOS 2251 DEB", "OBJECT_ID": "1993-036ADC", "EPOCH": "2025-12-21T12:42:42.512544", "MEAN_MOTION": 15.49920012, "ECCENTRICITY": 0.00185585, "INCLINATION": 73.9666, "RA_OF_ASC_NODE": 29.1312, "ARG_OF_PERICENTER": 328.4772, "MEAN_ANOMALY": 31.5327, "EPHEMERIS_TYPE": 0, "CLASSIFICATION_TYPE": "U", "NORAD_CAT_ID": 34907, "ELEMENT_SET_NO": 999, "REV_AT_EPOCH": 88109, "BSTAR": 0.0063719689, "MEAN_MOTION_DOT": 0.00375951, "MEAN_MOTION_DDOT": 0}, "tle": {"line1": "1 34907U 93036ADC 25355.52965871  .00375951  00000+0  63720-2 0  9996", "line2": "2 34907  73.9666  29.1312 0018558 328.4772  31.5327 15.49920012881090"}}, "geometry": {"type": "Point", "coordinates": [48.743988415049834, 50.40294650540667]}}, {"type": "Feature", "properties": {"norad_id": 34908, "name": "COSMOS 2251 DEB", "group": "cosmos-2251-debris", "lat": 70.77560128061724, "lon": 131.83985986819798, "alt_km": 755.0285254461487, "timestamp": "2025-12-21T20:41:08.351101+00:00", "meta": {"OBJECT_NAME": "COSMOS 2251 DEB", "OBJECT_ID": "1993-036ADD", "EPOCH": "2025-12-21T10:31:25.356288", "MEAN_MOTION": 14.37422304, "ECCENTRICITY": 0.00404908, "INCLINATION": 74.0579, "RA_OF_ASC_NODE": 7.6712, "ARG_OF_PERICENTER": 21.0605, "MEAN_ANOMALY": 49.1662, "EPHEMERIS_TYPE": 0, "CLASSIFICATION_TYPE": "U", "NORAD_CAT_ID": 34908, "ELEMENT_SET_NO": 999, "REV_AT_EPOCH": 87404, "BSTAR": 0.00042012947, "MEAN_MOTION_DOT": 1.242e-05, "MEAN_MOTION_DDOT": 0}, "tle": {"line1": "1 34908U 93036ADD 25355.43848792  .00001242  00000+0  42013-3 0  9991", "line2": "2 34908  74.0579   7.6712 0040490  21.0605  49.1662 14.37422304874043"}}, "geometry": {"type": "Point", "coordinates": [131.83985986819798, 70.77560128061724]}}, {"type": "Feature", "properties": {"norad_id": 34909, "name": "COSMOS 2251 DEB", "group": "cosmos-2251-debris", "lat": 55.73156544203994, "lon": -146.24288094346213, "alt_km": 611.3184437692316, "timestamp": "2025-12-21T20:41:08.351109+00:00", "meta": {"OBJECT_NAME": "COSMOS 2251 DEB", "OBJECT_ID": "1993-036ADE", "EPOCH": "2025-12-21T03:53:25.652544", "MEAN_MOTION": 14.77897576, "ECCENTRICITY": 0.00839569, "INCLINATION": 74.0144, "RA_OF_ASC_NODE": 60.0133, "ARG_OF_PERICENTER": 193.8754, "MEAN_ANOMALY": 166.0115, "EPHEMERIS_TYPE": 0, "CLASSIFICATION_TYPE": "U", "NORAD_CAT_ID": 34909, "ELEMENT_SET_NO": 999, "REV_AT_EPOCH": 66976, "BSTAR": 0.00033880462, "MEAN_MOTION_DOT": 2.55e-05, "MEAN_MOTION_DDOT": 0}, "tle": {"line1": "1 34909U 93036ADE 25355.16210246  .00002550  00000+0  33880-3 0  9994", "line2": "2 34909  74.0144  60.0133 0083956 193.8754 166.0115 14.77897576669763"}}, "geometry": {"type": "Point", "coordinates": [-146.24288094346213, 55.73156544203994]}}]}